{
  "norad_id": 64866,
  "name": "O3B MPOWER F9",
  "history": [
    {
      "epoch": "2026-04-02T05:13:12.527904Z",
      "apogee_km": 8073.289523355767,
      "perigee_km": 8058.461300213829,
      "latitude_deg": -0.01107825571515,
      "longitude_deg": 91.1284917348334,
      "height_km": 8058.4811016293415,
      "semi_major_axis_km": 14444.012411784799,
      "eccentricity": 0.0005133,
      "inclination_deg": 0.0506,
      "raan_deg": 14.9768,
      "arg_perigee_deg": 22.6976,
      "mean_anomaly_deg": 322.3589,
      "mean_motion_rev_day": 5.00116269
    }
  ]
}