O3B MPOWER F9           
1 64866U 25153A   26092.21750611 -.00000027  00000+0  00000+0 0  9996
2 64866   0.0506  14.9768 0005133  22.6976 322.3589  5.00116269 15763
